{"type": "FeatureCollection", "features": [ {"type": "Feature", "properties": {"norad_id": 31658, "name": "FENGYUN 1C DEB", "group": "fengyun-1c-debris", "lat": 46.52350002103151, "lon": 34.108317111754765, "alt_km": 1039.9118776749347, "timestamp": "2025-12-23T11:34:48.446224+00:00", "meta": {"OBJECT_NAME": "FENGYUN 1C DEB", "OBJECT_ID": "1999-025CBQ", "EPOCH": "2025-12-22T19:28:59.685024", "MEAN_MOTION": 13.98886705, "ECCENTRICITY": 0.02151336, "INCLINATION": 98.1523, "RA_OF_ASC_NODE": 204.8159, "ARG_OF_PERICENTER": 294.3668, "MEAN_ANOMALY": 63.5177, "EPHEMERIS_TYPE": 0, "CLASSIFICATION_TYPE": "U", "NORAD_CAT_ID": 31658, "ELEMENT_SET_NO": 999, "REV_AT_EPOCH": 69957, "BSTAR": 0.0026851926, "MEAN_MOTION_DOT": 4.685e-05, "MEAN_MOTION_DDOT": 0}, "tle": {"line1": "1 31658U 99025CBQ 25356.81180191  .00004685  00000+0  26852-2 0  9995", "line2": "2 31658  98.1523 204.8159 0215133 294.3668  63.5177 13.98886705699575"}}, "geometry": {"type": "Point", "coordinates": [34.108317111754765, 46.52350002103151]}}, {"type": "Feature", "properties": {"norad_id": 31660, "name": "FENGYUN 1C DEB", "group": "fengyun-1c-debris", "lat": 19.42170018404769, "lon": -4.485453355869217, "alt_km": 847.3423686229471, "timestamp": "2025-12-23T11:34:48.446232+00:00", "meta": {"OBJECT_NAME": "FENGYUN 1C DEB", "OBJECT_ID": "1999-025CBS", "EPOCH": "2025-12-16T17:57:05.517792", "MEAN_MOTION": 14.27134643, "ECCENTRICITY": 0.01019278, "INCLINATION": 98.5088, "RA_OF_ASC_NODE": 351.9874, "ARG_OF_PERICENTER": 168.851, "MEAN_ANOMALY": 191.4963, "EPHEMERIS_TYPE": 0, "CLASSIFICATION_TYPE": "U", "NORAD_CAT_ID": 31660, "ELEMENT_SET_NO": 999, "REV_AT_EPOCH": 7973, "BSTAR": 0.0004636242, "MEAN_MOTION_DOT": 1.153e-05, "MEAN_MOTION_DDOT": 0}, "tle": {"line1": "1 31660U 99025CBS 25350.74798053  .00001153  00000+0  46362-3 0  9992", "line2": "2 31660  98.5088 351.9874 0101927 168.8510 191.4963 14.27134643 79736"}}, "geometry": {"type": "Point", "coordinates": [-4.485453355869217, 19.42170018404769]}}, {"type": "Feature", "properties": {"norad_id": 31661, "name": "FENGYUN 1C DEB", "group": "fengyun-1c-debris", "lat": 18.768466943599286, "lon": 73.63347243106921, "alt_km": 849.1246568705865, "timestamp": "2025-12-23T11:34:48.446241+00:00", "meta": {"OBJECT_NAME": "FENGYUN 1C DEB", "OBJECT_ID": "1999-025CBT", "EPOCH": "2025-12-20T04:27:13.309344", "MEAN_MOTION": 14.25489004, "ECCENTRICITY": 0.00589426, "INCLINATION": 98.8591, "RA_OF_ASC_NODE": 73.3419, "ARG_OF_PERICENTER": 202.9747, "MEAN_ANOMALY": 186.5604, "EPHEMERIS_TYPE": 0, "CLASSIFICATION_TYPE": "U", "NORAD_CAT_ID": 31661, "ELEMENT_SET_NO": 999, "REV_AT_EPOCH": 95819, "BSTAR": 0.0011294573, "MEAN_MOTION_DOT": 2.673e-05, "MEAN_MOTION_DDOT": 0}, "tle": {"line1": "1 31661U 99025CBT 25354.18557071  .00002673  00000+0  11295-2 0  9992", "line2": "2 31661  98.8591  73.3419 0058942 202.9747 186.5604 14.25489004958194"}}, "geometry": {"type": "Point", "coordinates": [73.63347243106921, 18.768466943599286]}}, {"type": "Feature", "properties": {"norad_id": 31663, "name": "FENGYUN 1C DEB", "group": "fengyun-1c-debris", "lat": 21.80825575759125, "lon": -97.201345558966, "alt_km": 773.5993746903623, "timestamp": "2025-12-23T11:34:48.446250+00:00", "meta": {"OBJECT_NAME": "FENGYUN 1C DEB", "OBJECT_ID": "1999-025CBV", "EPOCH": "2025-12-21T23:41:35.767392", "MEAN_MOTION": 14.76444527, "ECCENTRICITY": 0.01899115, "INCLINATION": 98.839, "RA_OF_ASC_NODE": 264.7322, "ARG_OF_PERICENTER": 208.1994, "MEAN_ANOMALY": 150.8828, "EPHEMERIS_TYPE": 0, "CLASSIFICATION_TYPE": "U", "NORAD_CAT_ID": 31663, "ELEMENT_SET_NO": 999, "REV_AT_EPOCH": 99416, "BSTAR": 0.00023684129, "MEAN_MOTION_DOT": 2.14e-05, "MEAN_MOTION_DDOT": 0}, "tle": {"line1": "1 31663U 99025CBV 25355.98721953  .00002140  00000+0  23684-3 0  9990", "line2": "2 31663  98.8390 264.7322 0189911 208.1994 150.8828 14.76444527994161"}}, "geometry": {"type": "Point", "coordinates": [-97.201345558966, 21.80825575759125]}}, {"type": "Feature", "properties": {"norad_id": 31664, "name": "FENGYUN 1C DEB", "group": "fengyun-1c-debris", "lat": 7.5400450748140235, "lon": 169.87948418156276, "alt_km": 795.0396766915037, "timestamp": "2025-12-23T11:34:48.446259+00:00", "meta": {"OBJECT_NAME": "FENGYUN 1C DEB", "OBJECT_ID": "1999-025CBW", "EPOCH": "2025-12-19T09:43:14.848608", "MEAN_MOTION": 14.10303916, "ECCENTRICITY": 0.0125159, "INCLINATION": 98.7526, "RA_OF_ASC_NODE": 344.7417, "ARG_OF_PERICENTER": 139.2787, "MEAN_ANOMALY": 221.7823, "EPHEMERIS_TYPE": 0, "CLASSIFICATION_TYPE": "U", "NORAD_CAT_ID": 31664, "ELEMENT_SET_NO": 999, "REV_AT_EPOCH": 96095, "BSTAR": 0.00029066, "MEAN_MOTION_DOT": 5.13e-06, "MEAN_MOTION_DDOT": 0}, "tle": {"line1": "1 31664U 99025CBW 25353.40503297  .00000513  00000+0  29066-3 0  9997", "line2": "2 31664  98.7526 344.7417 0125159 139.2787 221.7823 14.10303916960951"}}, "geometry": {"type": "Point", "coordinates": [169.87948418156276, 7.5400450748140235]}}, {"type": "Feature", "properties": {"norad_id": 31665, "name": "FENGYUN 1C DEB", "group": "fengyun-1c-debris", "lat": -64.48581097054516, "lon": 57.52516495023227, "alt_km": 1053.4894802380186, "timestamp": "2025-12-23T11:34:48.446268+00:00", "meta": {"OBJECT_NAME": "FENGYUN 1C DEB", "OBJECT_ID": "1999-025CBX", "EPOCH": "2025-12-16T08:14:19.517280", "MEAN_MOTION": 13.84829693, "ECCENTRICITY": 0.01897318, "INCLINATION": 98.4487, "RA_OF_ASC_NODE": 32.9474, "ARG_OF_PERICENTER": 177.2489, "MEAN_ANOMALY": 182.9759, "EPHEMERIS_TYPE": 0, "CLASSIFICATION_TYPE": "U", "NORAD_CAT_ID": 31665, "ELEMENT_SET_NO": 999, "REV_AT_EPOCH": 93241, "BSTAR": 0.0010116548, "MEAN_MOTION_DOT": 1.275e-05, "MEAN_MOTION_DDOT": 0}, "tle": {"line1": "1 31665U 99025CBX 25350.34328145  .00001275  00000+0  10117-2 0  9997", "line2": "2 31665  98.4487  32.9474 0189731 177.2489 182.9759 13.84829693932412"}}, "geometry": {"type": "Point", "coordinates": [57.52516495023227, -64.48581097054516]}}, {"type": "Feature", "properties": {"norad_id": 31666, "name": "FENGYUN 1C DEB", "group": "fengyun-1c-debris", "lat": -57.55790343314549, "lon": -46.797150490310955, "alt_km": 630.0760073885822, "timestamp": "2025-12-23T11:34:48.446277+00:00", "meta": {"OBJECT_NAME": "FENGYUN 1C DEB", "OBJECT_ID": "1999-025CBY", "EPOCH": "2025-12-20T09:42:35.339616", "MEAN_MOTION": 14.84327002, "ECCENTRICITY": 0.00208221, "INCLINATION": 98.6537, "RA_OF_ASC_NODE": 143.7281, "ARG_OF_PERICENTER": 126.2949, "MEAN_ANOMALY": 234.019, "EPHEMERIS_TYPE": 0, "CLASSIFICATION_TYPE": "U", "NORAD_CAT_ID": 31666, "ELEMENT_SET_NO": 999, "REV_AT_EPOCH": 97385, "BSTAR": 0.0025103019, "MEAN_MOTION_DOT": 0.00021141, "MEAN_MOTION_DDOT": 0}, "tle": {"line1": "1 31666U 99025CBY 25354.40457569  .00021141  00000+0  25103-2 0  9997", "line2": "2 31666  98.6537 143.7281 0020822 126.2949 234.0190 14.84327002973857"}}, "geometry": {"type": "Point", "coordinates": [-46.797150490310955, -57.55790343314549]}}, {"type": "Feature", "properties": {"norad_id": 31667, "name": "FENGYUN 1C DEB", "group": "fengyun-1c-debris", "lat": 14.947612590780164, "lon": 32.27616619275405, "alt_km": 825.4772144396484, "timestamp": "2025-12-23T11:34:48.446286+00:00", "meta": {"OBJECT_NAME": "FENGYUN 1C DEB", "OBJECT_ID": "1999-025CBZ", "EPOCH": "2025-12-19T08:58:22.158048", "MEAN_MOTION": 14.23508815, "ECCENTRICITY": 0.0051766, "INCLINATION": 99.0843, "RA_OF_ASC_NODE": 205.588, "ARG_OF_PERICENTER": 68.7145, "MEAN_ANOMALY": 291.9549, "EPHEMERIS_TYPE": 0, "CLASSIFICATION_TYPE": "U", "NORAD_CAT_ID": 31667, "ELEMENT_SET_NO": 999, "REV_AT_EPOCH": 56087, "BSTAR": 0.00019687, "MEAN_MOTION_DOT": 4.07e-06, "MEAN_MOTION_DDOT": 0}, "tle": {"line1": "1 31667U 99025CBZ 25353.37386757  .00000407  00000+0  19687-3 0  9996", "line2": "2 31667  99.0843 205.5880 0051766  68.7145 291.9549 14.23508815560874"}}, "geometry": {"type": "Point", "coordinates": [32.27616619275405, 14.947612590780164]}}, {"type": "Feature", "properties": {"norad_id": 31672, "name": "FENGYUN 1C DEB", "group": "fengyun-1c-debris", "lat": -39.36429778121788, "lon": -1.6561929850929262, "alt_km": 727.4063837738349, "timestamp": "2025-12-23T11:34:48.446295+00:00", "meta": {"OBJECT_NAME": "FENGYUN 1C DEB", "OBJECT_ID": "1999-025CCE", "EPOCH": "2025-12-20T11:23:52.148832", "MEAN_MOTION": 14.51018489, "ECCENTRICITY": 0.01078222, "INCLINATION": 98.956, "RA_OF_ASC_NODE": 182.5765, "ARG_OF_PERICENTER": 318.553, "MEAN_ANOMALY": 40.752, "EPHEMERIS_TYPE": 0, "CLASSIFICATION_TYPE": "U", "NORAD_CAT_ID": 31672, "ELEMENT_SET_NO": 999, "REV_AT_EPOCH": 64983, "BSTAR": 0.0010644332, "MEAN_MOTION_DOT": 4.486e-05, "MEAN_MOTION_DDOT": 0}, "tle": {"line1": "1 31672U 99025CCE 25354.47490913  .00004486  00000+0  10644-2 0  9998", "line2": "2 31672  98.9560 182.5765 0107822 318.5530  40.7520 14.51018489649836"}}, "geometry": {"type": "Point", "coordinates": [-1.6561929850929262, -39.36429778121788]}}, {"type": "Feature", "properties": {"norad_id": 31673, "name": "FENGYUN 1C DEB", "group": "fengyun-1c-debris", "lat": -16.976812639199334, "lon": 9.923101467743747, "alt_km": 879.9947312197064, "timestamp": "2025-12-23T11:34:48.446304+00:00", "meta": {"OBJECT_NAME": "FENGYUN 1C DEB", "OBJECT_ID": "1999-025CCF", "EPOCH": "2025-12-17T12:07:26.297472", "MEAN_MOTION": 14.31948399, "ECCENTRICITY": 0.01255829, "INCLINATION": 99.3741, "RA_OF_ASC_NODE": 186.3601, "ARG_OF_PERICENTER": 35.3112, "MEAN_ANOMALY": 325.6307, "EPHEMERIS_TYPE": 0, "CLASSIFICATION_TYPE": "U", "NORAD_CAT_ID": 31673, "ELEMENT_SET_NO": 999, "REV_AT_EPOCH": 64959, "BSTAR": 0.00017748965, "MEAN_MOTION_DOT": 4.66e-06, "MEAN_MOTION_DDOT": 0}, "tle": {"line1": "1 31673U 99025CCF 25351.50516548  .00000466  00000+0  17749-3 0  9991", "line2": "2 31673  99.3741 186.3601 0125582  35.3112 325.6307 14.31948399649598"}}, "geometry": {"type": "Point", "coordinates": [9.923101467743747, -16.976812639199334]}}]}